ONEWEB-0328             
1 49197U 21083M   25211.52343759 -.00000050  00000+0 -17210-3 0  9993
2 49197  87.8962  24.1032 0001674  91.1023 269.0298 13.13470350188671
ONEWEB-0331             
1 49198U 21083N   25211.58269582  .00000036  00000+0  58889-4 0  9991
2 49198  87.9124  39.3311 0001558 100.1223 260.0084 13.18686857187629
ONEWEB-0333             
1 49199U 21083P   25211.51835900 -.00000150  00000+0 -44641-3 0  9997
2 49199  87.8963  24.1747 0001889  91.5988 268.5357 13.13469902188681
ONEWEB-0334             
1 49200U 21083Q   25211.63071554  .00000059  00000+0  11330-3 0  9995
2 49200  87.9281 338.5338 0002672  81.2505 278.8931 13.20771839194343
ONEWEB-0335             
1 49201U 21083R   25211.51327963 -.00000189  00000+0 -55204-3 0  9995
2 49201  87.8960  24.1630 0001736  97.9837 262.1489 13.13469870188698
ONEWEB-0336             
1 49202U 21083S   25211.56068035  .00000250  00000+0  64940-3 0  9997
2 49202  87.8964  24.1471 0001904  94.3339 265.8008 13.13469829188692
ONEWEB-0337             
1 49203U 21083T   25211.57068007 -.00000035  00000+0 -13191-3 0  9993
2 49203  87.8970  24.1447 0001589  92.7826 267.3485 13.13471700188692
ONEWEB-0338             
1 49204U 21083U   25211.60547418  .00000092  00000+0  19482-3 0  9996
2 49204  87.9292 338.5329 0002079  90.3954 269.7418 13.20770859194361
ONEWEB-0339             
1 49205U 21083V   25211.50312182 -.00000261  00000+0 -75078-3 0  9997
2 49205  87.8964  24.1445 0001741  87.7827 272.3501 13.13468667188660
ONEWEB-0340             
1 49206U 21083W   25211.56951440  .00000022  00000+0  23083-4 0  9993
2 49206  87.9125  39.3375 0001773  91.5449 268.5886 13.18685247187582
ONEWEB-0341             
1 49207U 21083X   25211.57608667 -.00000007  00000+0 -49398-4 0  9997
2 49207  87.9128  39.3472 0001297  79.3125 280.8153 13.18684183187605
ONEWEB-0342             
1 49208U 21083Y   25211.61178856  .00000148  00000+0  33100-3 0  9992
2 49208  87.9283 338.5060 0001965  94.9094 265.2263 13.20772450194330
ONEWEB-0343             
1 49209U 21083Z   25211.57198690 -.00000002  00000+0 -38040-4 0  9996
2 49209  87.9126  39.3346 0001564  69.9653 290.1648 13.18687663187657
ONEWEB-0344             
1 49210U 21083AA  25211.49804272 -.00000170  00000+0 -50093-3 0  9996
2 49210  87.8967  24.1856 0001343  88.1921 271.9362 13.13469316188665
ONEWEB-0345             
1 49211U 21083AB  25211.56575931  .00000097  00000+0  22948-3 0  9996
2 49211  87.8965  24.1239 0001295  87.7777 272.3501 13.13468509188684
ONEWEB-0346             
1 49212U 21083AC  25211.58105400  .00000011  00000+0 -60540-5 0  9998
2 49212  87.9127  39.3550 0001873 109.2141 250.9193 13.18686155188882
ONEWEB-0348             
1 49213U 21083AD  25211.60231189  .00000114  00000+0  24763-3 0  9994
2 49213  87.9287 338.5184 0001475 114.7590 245.3697 13.20773252194369
ONEWEB-0350             
1 49214U 21083AE  25211.49888233 -.00000138  00000+0 -41356-3 0  9995
2 49214  87.8968  24.1284 0001458  91.5116 268.6180 13.13468781188707
ONEWEB-0351             
1 49215U 21083AF  25211.59583135  .00003314  00000+0  81123-2 0  9992
2 49215  87.9294 338.5025 0002222  74.6329 285.5050 13.20800758195630
ONEWEB-0352             
1 49216U 21083AG  25211.55560382  .00000289  00000+0  75561-3 0  9996
2 49216  87.8967  24.1590 0001920  77.7675 282.3669 13.13469326188800
ONEWEB-0354             
1 49217U 21083AH  25211.62125059  .00000081  00000+0  16617-3 0  9990
2 49217  87.9294 338.4963 0001589 101.1519 258.9793 13.20771324194367
ONEWEB-0355             
1 49218U 21083AJ  25211.50833405 -.00000263  00000+0 -75640-3 0  9994
2 49218  87.8972  24.1671 0001656  85.0812 275.0507 13.13470767188675
ONEWEB-0357             
1 49219U 21083AK  25211.61809716  .00000056  00000+0  10578-3 0  9992
2 49219  87.9283 338.5011 0001802  92.8497 267.2842 13.20771912194362
ONEWEB-0332             
1 49279U 21090A   25211.62099102  .00000271  00000+0  69773-3 0  9997
2 49279  87.9069 353.7068 0002031  91.7443 268.3919 13.14504272185335
ONEWEB-0347             
1 49280U 21090B   25211.38135313  .00000097  00000+0  20774-3 0  9991
2 49280  87.9290 338.5582 0002265  98.3283 261.8107 13.20771266188560
ONEWEB-0349             
1 49281U 21090C   25211.64019663  .00000035  00000+0  54198-4 0  9990
2 49281  87.9283 338.5114 0001827  95.5389 264.5953 13.20770806187380
ONEWEB-0353             
1 49282U 21090D   25211.46082448  .00000254  00000+0  65113-3 0  9993
2 49282  87.9068 353.7254 0002072  94.1805 265.9562 13.14504201185316
ONEWEB-0356             
1 49283U 21090E   25211.41134157 -.00000025  00000+0 -93188-4 0  9996
2 49283  87.9286 338.5477 0002359 119.3395 240.7974 13.20771069187358
ONEWEB-0358             
1 49284U 21090F   25211.59284630 -.00000199  00000+0 -52228-3 0  9999
2 49284  87.9289 338.5017 0001812 100.5331 259.6006 13.20772541188102
ONEWEB-0359             
1 49285U 21090G   25211.58967856  .00000059  00000+0  11401-3 0  9998
2 49285  87.9283 338.5140 0001533 103.9603 256.1701 13.20770780188087
ONEWEB-0360             
1 49286U 21090H   25211.58019290  .00000053  00000+0  97391-4 0  9996
2 49286  87.9293 338.5235 0001714  98.7117 261.4210 13.20769790187392
ONEWEB-0361             
1 49287U 21090J   25211.63703746  .00000070  00000+0  13943-3 0  9998
2 49287  87.9289 338.5071 0001953 102.9107 257.2245 13.20771226187857
ONEWEB-0362             
1 49288U 21090K   25211.48658290  .00000038  00000+0  62852-4 0  9993
2 49288  87.9233   8.9394 0001766  88.1265 272.0070 13.19725285184484
ONEWEB-0363             
1 49289U 21090L   25211.42555295  .00000075  00000+0  15202-3 0  9996
2 49289  87.9291 338.5447 0001987 110.2715 249.8632 13.20771123187834
ONEWEB-0364             
1 49290U 21090M   25211.61494107  .00000055  00000+0  10268-3 0  9998
2 49290  87.9282 338.5363 0001983 102.1698 257.9657 13.20772467188996
ONEWEB-0365             
1 49291U 21090N   25211.49605866  .00000021  00000+0  20005-4 0  9995
2 49291  87.9233   8.8920 0001892  90.7783 269.3566 13.19725808183991
ONEWEB-0366             
1 49292U 21090P   25211.45765840  .00000241  00000+0  61639-3 0  9992
2 49292  87.9069 353.7389 0001810  98.8180 261.3155 13.14503834185299
ONEWEB-0367             
1 49293U 21090Q   25211.42397226 -.00000015  00000+0 -68563-4 0  9994
2 49293  87.9289 338.5402 0001848  92.2471 267.8874 13.20770838187358
ONEWEB-0368             
1 49294U 21090R   25211.62439668  .00000060  00000+0  11570-3 0  9997
2 49294  87.9296 338.5353 0002701 102.5027 257.6408 13.20771223188533
ONEWEB-0369             
1 49295U 21090S   25211.49131322 -.00000025  00000+0 -95004-4 0  9997
2 49295  87.9236   8.9238 0001915  92.7521 267.3831 13.19724406183984
ONEWEB-0370             
1 49296U 21090T   25211.58495695  .00000035  00000+0  54022-4 0  9998
2 49296  87.9295 338.5145 0001558  92.9486 267.1826 13.20771142187419
ONEWEB-0371             
1 49297U 21090U   25211.49921107 -.00000051  00000+0 -15950-3 0  9997
2 49297  87.9237   8.9120 0001822  90.0493 270.0849 13.19725553184023
ONEWEB-0372             
1 49298U 21090V   25211.42226255 -.00000026  00000+0 -94993-4 0  9990
2 49298  87.9286 338.5544 0001986  95.7967 264.3393 13.20771282187361
ONEWEB-0373             
1 49299U 21090W   25211.60072052  .00000101  00000+0  21533-3 0  9996
2 49299  87.9287 338.5302 0001823 100.7915 259.3424 13.20770941188579
ONEWEB-0374             
1 49300U 21090X   25211.44497841  .00000071  00000+0  15694-3 0  9995
2 49300  87.9060 353.7209 0002236 109.7758 250.3612 13.14501946185295
ONEWEB-0375             
1 49301U 21090Y   25211.58811086  .00000080  00000+0  16456-3 0  9999
2 49301  87.9289 338.5114 0001951 117.2966 242.8366 13.20771394188077
ONEWEB-0376             
1 49302U 21090Z   25211.49763489  .00000030  00000+0  41879-4 0  9996
2 49302  87.9233   8.8943 0002017  88.1574 271.9790 13.19727477184025
ONEWEB-0377             
1 49303U 21090AA  25211.42250914  .00000012  00000+0 -16750-5 0  9996
2 49303  87.9292 338.5376 0001622 100.9671 259.1644 13.20773444188045
ONEWEB-0378             
1 49304U 21090AB  25211.59613431  .00000110  00000+0  23978-3 0  9998
2 49304  87.9301 338.5121 0001939 102.6373 257.4977 13.20771766188656
ONEWEB-0379             
1 49305U 21090AC  25211.44020380 -.00000002  00000+0 -39130-4 0  9998
2 49305  87.9067 353.7270 0001949  97.7310 262.4041 13.14504384185294
ONEWEB-0380             
1 49306U 21090AD  25211.49446797  .00000007  00000+0 -14275-4 0  9995
2 49306  87.9230   8.9238 0001704  99.0872 261.0453 13.19726877183992
ONEWEB-0381             
1 49307U 21090AE  25211.34345574  .00000017  00000+0  10723-4 0  9995
2 49307  87.9298 338.5620 0001858 107.3976 252.7361 13.20772545187345
ONEWEB-0382             
1 49308U 21090AF  25211.40660474  .00000019  00000+0  14714-4 0  9998
2 49308  87.9290 338.5421 0002046 107.7581 252.3776 13.20771210187347
ONEWEB-0383             
1 49309U 21090AG  25211.43386654 -.00000131  00000+0 -38668-3 0  9997
2 49309  87.9066 353.7078 0001997  99.1851 260.9505 13.14501912185328
ONEWEB-0384             
1 49310U 21090AH  25211.62947933  .00000050  00000+0  90607-4 0  9993
2 49310  87.9302 338.5170 0002277 110.7209 249.4169 13.20786719187389
ONEWEB-0385             
1 49311U 21090AJ  25211.62597017  .00000053  00000+0  97921-4 0  9997
2 49311  87.9279 338.5142 0001953 102.6761 257.4591 13.20771598187359
ONEWEB-0386             
1 49312U 21090AK  25211.41605755 -.00000001  00000+0 -35026-4 0  9997
2 49312  87.9288 338.5271 0002093 104.8372 255.2993 13.20772973187340
ONEWEB-0387             
1 49313U 21090AL  25211.62756855  .00000044  00000+0  76959-4 0  9994
2 49313  87.9281 338.5429 0001735 108.0918 252.0405 13.20770844187374
ONEWEB-0388             
1 49314U 21090AM  25211.48972725  .00000001  00000+0 -28879-4 0  9997
2 49314  87.9236   8.9306 0001899  98.5666 261.5682 13.19726801183988
